{
  "type": "FeatureCollection",
  "features": [
    {
      "type": "Feature",
      "properties": {
        "norad_id": 66524,
        "name": "STARLINK-35687",
        "group": "last-30-days",
        "lat": 37.469984334131325,
        "lon": -163.61443069917334,
        "alt_km": 407.4690512720708,
        "timestamp": "2025-12-09T16:56:35.358835+00:00",
        "meta_object_name": "STARLINK-35687",
        "meta_object_id": "2025-265J",
        "meta_epoch": "2025-12-09T12:00:02.000160",
        "meta_mean_motion": 15.52426446,
        "meta_eccentricity": 0.000158,
        "meta_inclination": 42.9999,
        "meta_ra_of_asc_node": 72.9345,
        "meta_arg_of_pericenter": 279.1141,
        "meta_mean_anomaly": 125.704,
        "meta_ephemeris_type": 0,
        "meta_classification_type": "U",
        "meta_norad_cat_id": 66524,
        "meta_element_set_no": 999,
        "meta_rev_at_epoch": 447,
        "meta_bstar": -0.037446,
        "meta_mean_motion_dot": -0.02087379,
        "meta_mean_motion_ddot": 0,
        "tle_line1": "1 66524U 25265J   25343.50002315 -.02087379  00000+0 -37446-1 0  9998",
        "tle_line2": "2 66524  42.9999  72.9345 0001580 279.1141 125.7040 15.52426446  4479"
      },
      "geometry": {
        "type": "Point",
        "coordinates": [
          -163.61443069917334,
          37.469984334131325
        ]
      }
    },
    {
      "type": "Feature",
      "properties": {
        "norad_id": 66525,
        "name": "STARLINK-35975",
        "group": "last-30-days",
        "lat": 36.711890248927254,
        "lon": -161.4312603207694,
        "alt_km": 407.495984000574,
        "timestamp": "2025-12-09T16:56:35.358869+00:00",
        "meta_object_name": "STARLINK-35975",
        "meta_object_id": "2025-265K",
        "meta_epoch": "2025-12-09T12:00:02.000160",
        "meta_mean_motion": 15.52408568,
        "meta_eccentricity": 0.0001501,
        "meta_inclination": 42.9996,
        "meta_ra_of_asc_node": 72.93,
        "meta_arg_of_pericenter": 276.4965,
        "meta_mean_anomaly": 130.2281,
        "meta_ephemeris_type": 0,
        "meta_classification_type": "U",
        "meta_norad_cat_id": 66525,
        "meta_element_set_no": 999,
        "meta_rev_at_epoch": 447,
        "meta_bstar": -0.036602,
        "meta_mean_motion_dot": -0.02044208,
        "meta_mean_motion_ddot": 0,
        "tle_line1": "1 66525U 25265K   25343.50002315 -.02044208  00000+0 -36602-1 0  9996",
        "tle_line2": "2 66525  42.9996  72.9300 0001501 276.4965 130.2281 15.52408568  4478"
      },
      "geometry": {
        "type": "Point",
        "coordinates": [
          -161.4312603207694,
          36.711890248927254
        ]
      }
    },
    {
      "type": "Feature",
      "properties": {
        "norad_id": 66526,
        "name": "STARLINK-35932",
        "group": "last-30-days",
        "lat": 35.908945892453545,
        "lon": -159.27684489292653,
        "alt_km": 407.67288770254254,
        "timestamp": "2025-12-09T16:56:35.358893+00:00",
        "meta_object_name": "STARLINK-35932",
        "meta_object_id": "2025-265L",
        "meta_epoch": "2025-12-09T12:00:02.000160",
        "meta_mean_motion": 15.52398926,
        "meta_eccentricity": 0.000155,
        "meta_inclination": 42.9996,
        "meta_ra_of_asc_node": 72.9252,
        "meta_arg_of_pericenter": 279.9112,
        "meta_mean_anomaly": 128.7311,
        "meta_ephemeris_type": 0,
        "meta_classification_type": "U",
        "meta_norad_cat_id": 66526,
        "meta_element_set_no": 999,
        "meta_rev_at_epoch": 436,
        "meta_bstar": -0.036301,
        "meta_mean_motion_dot": -0.0202858,
        "meta_mean_motion_ddot": 0,
        "tle_line1": "1 66526U 25265L   25343.50002315 -.02028580  00000+0 -36301-1 0  9998",
        "tle_line2": "2 66526  42.9996  72.9252 0001550 279.9112 128.7311 15.52398926  4361"
      },
      "geometry": {
        "type": "Point",
        "coordinates": [
          -159.27684489292653,
          35.908945892453545
        ]
      }
    },
    {
      "type": "Feature",
      "properties": {
        "norad_id": 66527,
        "name": "STARLINK-35935",
        "group": "last-30-days",
        "lat": 35.06633008017666,
        "lon": -157.16222761273914,
        "alt_km": 407.6228995293086,
        "timestamp": "2025-12-09T16:56:35.358904+00:00",
        "meta_object_name": "STARLINK-35935",
        "meta_object_id": "2025-265M",
        "meta_epoch": "2025-12-09T12:00:02.000160",
        "meta_mean_motion": 15.52402362,
        "meta_eccentricity": 0.0001336,
        "meta_inclination": 42.9996,
        "meta_ra_of_asc_node": 72.9206,
        "meta_arg_of_pericenter": 275.8104,
        "meta_mean_anomaly": 134.7491,
        "meta_ephemeris_type": 0,
        "meta_classification_type": "U",
        "meta_norad_cat_id": 66527,
        "meta_element_set_no": 999,
        "meta_rev_at_epoch": 447,
        "meta_bstar": -0.036401,
        "meta_mean_motion_dot": -0.02033686,
        "meta_mean_motion_ddot": 0,
        "tle_line1": "1 66527U 25265M   25343.50002315 -.02033686  00000+0 -36401-1 0  9993",
        "tle_line2": "2 66527  42.9996  72.9206 0001336 275.8104 134.7491 15.52402362  4477"
      },
      "geometry": {
        "type": "Point",
        "coordinates": [
          -157.16222761273914,
          35.06633008017666
        ]
      }
    },
    {
      "type": "Feature",
      "properties": {
        "norad_id": 66528,
        "name": "STARLINK-35928",
        "group": "last-30-days",
        "lat": 34.188814734498216,
        "lon": -155.09431715544324,
        "alt_km": 407.86278046978987,
        "timestamp": "2025-12-09T16:56:35.358915+00:00",
        "meta_object_name": "STARLINK-35928",
        "meta_object_id": "2025-265N",
        "meta_epoch": "2025-12-09T12:00:02.000160",
        "meta_mean_motion": 15.52403751,
        "meta_eccentricity": 0.000149,
        "meta_inclination": 42.9999,
        "meta_ra_of_asc_node": 72.9156,
        "meta_arg_of_pericenter": 278.1687,
        "meta_mean_anomaly": 134.3065,
        "meta_ephemeris_type": 0,
        "meta_classification_type": "U",
        "meta_norad_cat_id": 66528,
        "meta_element_set_no": 999,
        "meta_rev_at_epoch": 447,
        "meta_bstar": -0.036431,
        "meta_mean_motion_dot": -0.02035385,
        "meta_mean_motion_ddot": 0,
        "tle_line1": "1 66528U 25265N   25343.50002315 -.02035385  00000+0 -36431-1 0  9995",
        "tle_line2": "2 66528  42.9999  72.9156 0001490 278.1687 134.3065 15.52403751  4474"
      },
      "geometry": {
        "type": "Point",
        "coordinates": [
          -155.09431715544324,
          34.188814734498216
        ]
      }
    },
    {
      "type": "Feature",
      "properties": {
        "norad_id": 66529,
        "name": "STARLINK-35933",
        "group": "last-30-days",
        "lat": 33.27676289198459,
        "lon": -153.069867445687,
        "alt_km": 407.9730284296056,
        "timestamp": "2025-12-09T16:56:35.358925+00:00",
        "meta_object_name": "STARLINK-35933",
        "meta_object_id": "2025-265P",
        "meta_epoch": "2025-12-09T12:00:02.000160",
        "meta_mean_motion": 15.5240619,
        "meta_eccentricity": 0.0001516,
        "meta_inclination": 42.9998,
        "meta_ra_of_asc_node": 72.9106,
        "meta_arg_of_pericenter": 274.9461,
        "meta_mean_anomaly": 139.4456,
        "meta_ephemeris_type": 0,
        "meta_classification_type": "U",
        "meta_norad_cat_id": 66529,
        "meta_element_set_no": 999,
        "meta_rev_at_epoch": 447,
        "meta_bstar": -0.036484,
        "meta_mean_motion_dot": -0.02038172,
        "meta_mean_motion_ddot": 0,
        "tle_line1": "1 66529U 25265P   25343.50002315 -.02038172  00000+0 -36484-1 0  9991",
        "tle_line2": "2 66529  42.9998  72.9106 0001516 274.9461 139.4456 15.52406190  4472"
      },
      "geometry": {
        "type": "Point",
        "coordinates": [
          -153.069867445687,
          33.27676289198459
        ]
      }
    },
    {
      "type": "Feature",
      "properties": {
        "norad_id": 66530,
        "name": "STARLINK-35961",
        "group": "last-30-days",
        "lat": 32.33247462464996,
        "lon": -151.08751570489002,
        "alt_km": 408.14767169777315,
        "timestamp": "2025-12-09T16:56:35.358935+00:00",
        "meta_object_name": "STARLINK-35961",
        "meta_object_id": "2025-265Q",
        "meta_epoch": "2025-12-09T12:00:02.000160",
        "meta_mean_motion": 15.5240087,
        "meta_eccentricity": 0.000151,
        "meta_inclination": 42.9999,
        "meta_ra_of_asc_node": 72.9059,
        "meta_arg_of_pericenter": 278.684,
        "meta_mean_anomaly": 137.6261,
        "meta_ephemeris_type": 0,
        "meta_classification_type": "U",
        "meta_norad_cat_id": 66530,
        "meta_element_set_no": 999,
        "meta_rev_at_epoch": 447,
        "meta_bstar": -0.036356,
        "meta_mean_motion_dot": -0.02031459,
        "meta_mean_motion_ddot": 0,
        "tle_line1": "1 66530U 25265Q   25343.50002315 -.02031459  00000+0 -36356-1 0  9992",
        "tle_line2": "2 66530  42.9999  72.9059 0001510 278.6840 137.6261 15.52400870  4471"
      },
      "geometry": {
        "type": "Point",
        "coordinates": [
          -151.08751570489002,
          32.33247462464996
        ]
      }
    }
  ]
}